#aV2007  4 24  0  0   .00000000      96 DD+AD WGS84 FIT  NGA
## 1424 172800.00000000   900.00000000 54214  .0000000000000
+   30     1  2  3  4  5  6  7  8  9 10 11 12 13 14 16 17 18
+         19 20 21 22 23 24 25 26 27 28 29 30 31  0  0  0  0
+          0  0  0  0  0  0  0  0  0  0  0  0  0  0  0  0  0
+          0  0  0  0  0  0  0  0  0  0  0  0  0  0  0  0  0
+          0  0  0  0  0  0  0  0  0  0  0  0  0  0  0  0  0
++         0  0  0  0  0  0  0  0  0  0  0  0  0  0  0  0  0
++         0  0  0  0  0  0  0  0  0  0  0  0  0  0  0  0  0
++         0  0  0  0  0  0  0  0  0  0  0  0  0  0  0  0  0
++         0  0  0  0  0  0  0  0  0  0  0  0  0  0  0  0  0
++         0  0  0  0  0  0  0  0  0  0  0  0  0  0  0  0  0
%c cc cc ccc ccc cccc cccc cccc cccc ccccc ccccc ccccc ccccc
%c cc cc ccc ccc cccc cccc cccc cccc ccccc ccccc ccccc ccccc
%f  0.0000000  0.000000000  0.00000000000  0.000000000000000
%f  0.0000000  0.000000000  0.00000000000  0.000000000000000
%i    0    0    0    0      0      0      0      0         0
%i    0    0    0    0      0      0      0      0         0
/*      NGA, ST. LOUIS,MO.                                  
/*   EPHEMERIS COMPUTED FROM  3 DAYS OF DATA                
/* CCCCCCCCCCCCCCCCCCCCCCCCCCCCCCCCCCCCCCCCCCCCCCCCCCCCCCCCC
/* CCCCCCCCCCCCCCCCCCCCCCCCCCCCCCCCCCCCCCCCCCCCCCCCCCCCCCCCC
*  2007  4 24 17 15   .00000000                                                 
P  1 -13792.445291   4985.195649 -21936.401842    122.704508                    
V  1  -4499.635861 -27911.186860  -3541.559070       .025085                    
P  2  22211.928816 -11793.410236  -8309.752950    101.423627                    
V  2  -5604.214664   9272.334133 -29180.619430       .029526                    
P  3 -13465.084469   9211.143231  20710.603759     47.503990                    
V  3  -8755.973099 -25513.908086   5931.275374       .056679                    
P  4  20290.273623   -912.135116 -17367.585891     10.688486                    
V  4 -15445.584784  15517.134575 -18576.587970       .003846                    
P  5    284.486652 -16045.703039 -21412.652163     25.597941                    
V  5  26042.401070   5946.409855  -4002.424689      -.096520                    
P  6  -6262.478675 -25786.238449     89.857257    155.777369                    
V  6   3637.220529   -763.693727 -31171.578056       .165998                    
P  7  -9809.510454 -24316.972634   4326.707587    331.810474                    
V  7   2134.682311  -5856.306507 -30580.794879      -.158492                    
P  8  13001.948879   8219.920497  21590.785429   -104.886691                    
V  8 -21340.740448  17466.233083   5745.596164      -.013942                    
P  9  13107.679827 -21288.131770  -9207.166768     67.443246                    
V  9   9624.276711  -5745.750617  29064.011360       .016263                    
P 10  21692.127649  -3147.860347  15108.331871    100.881952                    
V 10  17514.058095   8148.720962 -22955.471191       .005659                    
P 11  -9611.694462  23035.110589  -8764.324358     14.193272                    
V 11 -10656.317065   5789.482367  27526.294155       .009713                    
P 12   4526.281206 -14466.138177 -21700.072002    -44.140772                    
V 12  26386.425292   8806.023353   -310.832589      -.002604                    
P 13   6292.809464  25630.568087   3099.492534    166.169194                    
V 13  -1009.998963   4266.436472 -32137.757914       .036050                    
P 14 -14535.300993 -12502.190645 -18333.096268     17.228518                    
V 14  -3114.206434 -23167.284111  18119.141711       .016605                    
P 16 -24527.630160   -939.949259  10417.402615    142.456912                    
V 16 -11553.478779  -6481.494791 -27877.015165       .031395                    
P 17  14704.851460  14710.769234 -16578.099522     70.560403                    
V 17   2300.781608  20973.215971  20511.971671      -.014245                    
P 18 -16275.370459 -16458.388804  13452.121204   -251.159084                    
V 18  16406.093664   3996.721080  24658.657782       .006575                    
P 19  -9304.641357  18514.265180  16654.599905     27.860720                    
V 19  -4721.396790 -20561.578452  20448.608678       .035705                    
P 20  -3535.518804  15062.446719 -21692.562388    -23.973748                    
V 20 -26043.336993  -8279.424885  -1470.932108      -.003443                    
P 21  -6333.842679 -14814.152332  21152.554376     75.887017                    
V 21  21183.572586 -16388.990952  -5734.732898       .005816                    
P 22 -23536.826032 -11880.564820   3485.156425    178.627531                    
V 22   5066.224688  -1300.686118  31105.227778       .018861                    
P 23   -254.472243  25344.794064  -7672.450985    162.051239                    
V 23  -4351.041616  -8990.990618 -30069.008726       .023738                    
P 24   7369.856103 -20228.304684  15950.009178     95.299097                    
V 24  16584.010450 -10911.972036 -21495.560547       .028385                    
P 25 -12320.431960  22117.698764   8749.664151    207.753840                    
V 25  -8946.911273   6021.300449 -28961.718724      -.295005                    
P 26   9443.696385 -16013.628221  18292.635961   -158.563147                    
V 26   5387.716520  23712.105566  18118.744747      -.202501                    
P 27   5645.057942  15438.522649  21463.347896    106.863237                    
V 27 -18779.308476  17723.425995  -8293.011694       .021843                    
P 28  21895.983584  13539.921575   7567.008719      2.518157                    
V 28  -9312.446092   -929.960862  29598.830305      -.008812                    
P 29  11607.660872 -11828.932981  20870.863651      2.070624                    
V 29   5970.911717  25366.766931  11526.131485       .003752                    
P 30  -7806.559677 -16851.021181 -19334.206530     31.941815                    
V 30  23328.789710   5457.454239 -14290.563767       .011519                    
P 31 -20420.729532   2679.201578 -16610.456811     19.889391                    
V 31  14812.904878 -15607.813207 -20412.437029       .003081                    
EOF
